{"type": "FeatureCollection", "features": [ {"type": "Feature", "properties": {"norad_id": 34833, "name": "IRIDIUM 33 DEB", "group": "iridium-33-debris", "lat": -71.0531252666035, "lon": -122.14960522790128, "alt_km": 740.3692018184192, "timestamp": "2025-12-21T09:37:23.040058+00:00", "meta": {"OBJECT_NAME": "IRIDIUM 33 DEB", "OBJECT_ID": "1997-051MH", "EPOCH": "2025-12-21T03:45:30.831840", "MEAN_MOTION": 14.52421073, "ECCENTRICITY": 0.0021468, "INCLINATION": 86.3927, "RA_OF_ASC_NODE": 47.3667, "ARG_OF_PERICENTER": 72.8031, "MEAN_ANOMALY": 341.7014, "EPHEMERIS_TYPE": 0, "CLASSIFICATION_TYPE": "U", "NORAD_CAT_ID": 34833, "ELEMENT_SET_NO": 999, "REV_AT_EPOCH": 87837, "BSTAR": 0.00044713, "MEAN_MOTION_DOT": 1.848e-05, "MEAN_MOTION_DDOT": 0}, "tle": {"line1": "1 34833U 97051MH  25355.15660685  .00001848  00000+0  44713-3 0  9992", "line2": "2 34833  86.3927  47.3667 0021468  72.8031 341.7014 14.52421073878375"}}, "geometry": {"type": "Point", "coordinates": [-122.14960522790128, -71.0531252666035]}}, {"type": "Feature", "properties": {"norad_id": 34870, "name": "IRIDIUM 33 DEB", "group": "iridium-33-debris", "lat": -73.89833685399934, "lon": 143.03443417449492, "alt_km": 650.1227987803686, "timestamp": "2025-12-21T09:37:23.040071+00:00", "meta": {"OBJECT_NAME": "IRIDIUM 33 DEB", "OBJECT_ID": "1997-051MQ", "EPOCH": "2025-12-17T15:48:12.189024", "MEAN_MOTION": 14.76525212, "ECCENTRICITY": 0.00169592, "INCLINATION": 86.3102, "RA_OF_ASC_NODE": 311.8309, "ARG_OF_PERICENTER": 164.6796, "MEAN_ANOMALY": 8.9227, "EPHEMERIS_TYPE": 0, "CLASSIFICATION_TYPE": "U", "NORAD_CAT_ID": 34870, "ELEMENT_SET_NO": 999, "REV_AT_EPOCH": 88983, "BSTAR": 0.0011120343, "MEAN_MOTION_DOT": 7.793e-05, "MEAN_MOTION_DDOT": 0}, "tle": {"line1": "1 34870U 97051MQ  25351.65847441  .00007793  00000+0  11120-2 0  9991", "line2": "2 34870  86.3102 311.8309 0016959 164.6796   8.9227 14.76525212889837"}}, "geometry": {"type": "Point", "coordinates": [143.03443417449492, -73.89833685399934]}}, {"type": "Feature", "properties": {"norad_id": 34896, "name": "IRIDIUM 33 DEB", "group": "iridium-33-debris", "lat": 42.215287466601026, "lon": 139.46092647540243, "alt_km": 656.9047552447655, "timestamp": "2025-12-21T09:37:23.040081+00:00", "meta": {"OBJECT_NAME": "IRIDIUM 33 DEB", "OBJECT_ID": "1997-051MY", "EPOCH": "2025-12-21T04:08:25.029024", "MEAN_MOTION": 14.66349827, "ECCENTRICITY": 0.0025323, "INCLINATION": 86.3294, "RA_OF_ASC_NODE": 322.9021, "ARG_OF_PERICENTER": 184.0734, "MEAN_ANOMALY": 188.5608, "EPHEMERIS_TYPE": 0, "CLASSIFICATION_TYPE": "U", "NORAD_CAT_ID": 34896, "ELEMENT_SET_NO": 999, "REV_AT_EPOCH": 87743, "BSTAR": 0.00055993, "MEAN_MOTION_DOT": 3.128e-05, "MEAN_MOTION_DDOT": 0}, "tle": {"line1": "1 34896U 97051MY  25355.17251191  .00003128  00000+0  55993-3 0  9996", "line2": "2 34896  86.3294 322.9021 0025323 184.0734 188.5608 14.66349827877430"}}, "geometry": {"type": "Point", "coordinates": [139.46092647540243, 42.215287466601026]}}, {"type": "Feature", "properties": {"norad_id": 34926, "name": "IRIDIUM 33 DEB", "group": "iridium-33-debris", "lat": -39.31555749977027, "lon": -172.56692827123229, "alt_km": 678.2639895176317, "timestamp": "2025-12-21T09:37:23.040092+00:00", "meta": {"OBJECT_NAME": "IRIDIUM 33 DEB", "OBJECT_ID": "1997-051NF", "EPOCH": "2025-12-20T01:29:58.203744", "MEAN_MOTION": 14.54723166, "ECCENTRICITY": 0.00745564, "INCLINATION": 86.1315, "RA_OF_ASC_NODE": 4.8773, "ARG_OF_PERICENTER": 267.4346, "MEAN_ANOMALY": 147.2463, "EPHEMERIS_TYPE": 0, "CLASSIFICATION_TYPE": "U", "NORAD_CAT_ID": 34926, "ELEMENT_SET_NO": 999, "REV_AT_EPOCH": 86563, "BSTAR": 0.0033633995, "MEAN_MOTION_DOT": 0.00014979, "MEAN_MOTION_DDOT": 0}, "tle": {"line1": "1 34926U 97051NF  25354.06247921  .00014979  00000+0  33634-2 0  9996", "line2": "2 34926  86.1315   4.8773 0074556 267.4346 147.2463 14.54723166865632"}}, "geometry": {"type": "Point", "coordinates": [-172.56692827123229, -39.31555749977027]}}, {"type": "Feature", "properties": {"norad_id": 34985, "name": "IRIDIUM 33 DEB", "group": "iridium-33-debris", "lat": -46.69453788697504, "lon": 49.32210683299988, "alt_km": 766.9294125024917, "timestamp": "2025-12-21T09:37:23.040102+00:00", "meta": {"OBJECT_NAME": "IRIDIUM 33 DEB", "OBJECT_ID": "1997-051NR", "EPOCH": "2025-12-21T03:18:55.645056", "MEAN_MOTION": 14.42041434, "ECCENTRICITY": 0.0021643, "INCLINATION": 86.369, "RA_OF_ASC_NODE": 53.2972, "ARG_OF_PERICENTER": 191.5239, "MEAN_ANOMALY": 198.031, "EPHEMERIS_TYPE": 0, "CLASSIFICATION_TYPE": "U", "NORAD_CAT_ID": 34985, "ELEMENT_SET_NO": 999, "REV_AT_EPOCH": 87296, "BSTAR": 0.00042163, "MEAN_MOTION_DOT": 1.407e-05, "MEAN_MOTION_DDOT": 0}, "tle": {"line1": "1 34985U 97051NR  25355.13814404  .00001407  00000+0  42163-3 0  9996", "line2": "2 34985  86.3690  53.2972 0021643 191.5239 198.0310 14.42041434872968"}}, "geometry": {"type": "Point", "coordinates": [49.32210683299988, -46.69453788697504]}}, {"type": "Feature", "properties": {"norad_id": 35051, "name": "IRIDIUM 33 DEB", "group": "iridium-33-debris", "lat": 59.546177948711964, "lon": 11.364784858019783, "alt_km": 720.3004377187817, "timestamp": "2025-12-21T09:37:23.040112+00:00", "meta": {"OBJECT_NAME": "IRIDIUM 33 DEB", "OBJECT_ID": "1997-051NX", "EPOCH": "2025-12-19T07:34:48.667584", "MEAN_MOTION": 14.47625509, "ECCENTRICITY": 0.0010483, "INCLINATION": 86.3238, "RA_OF_ASC_NODE": 5.9957, "ARG_OF_PERICENTER": 72.9006, "MEAN_ANOMALY": 287.3345, "EPHEMERIS_TYPE": 0, "CLASSIFICATION_TYPE": "U", "NORAD_CAT_ID": 35051, "ELEMENT_SET_NO": 999, "REV_AT_EPOCH": 87091, "BSTAR": 0.00045048, "MEAN_MOTION_DOT": 1.68e-05, "MEAN_MOTION_DDOT": 0}, "tle": {"line1": "1 35051U 97051NX  25353.31584106  .00001680  00000+0  45048-3 0  9990", "line2": "2 35051  86.3238   5.9957 0010483  72.9006 287.3345 14.47625509870911"}}, "geometry": {"type": "Point", "coordinates": [11.364784858019783, 59.546177948711964]}}, {"type": "Feature", "properties": {"norad_id": 35052, "name": "IRIDIUM 33 DEB", "group": "iridium-33-debris", "lat": -74.66692522050064, "lon": 3.2248389640179203, "alt_km": 777.699005762689, "timestamp": "2025-12-21T09:37:23.040123+00:00", "meta": {"OBJECT_NAME": "IRIDIUM 33 DEB", "OBJECT_ID": "1997-051NY", "EPOCH": "2025-12-20T18:56:48.199200", "MEAN_MOTION": 14.3850059, "ECCENTRICITY": 0.00133727, "INCLINATION": 86.33, "RA_OF_ASC_NODE": 17.0245, "ARG_OF_PERICENTER": 62.6597, "MEAN_ANOMALY": 297.5961, "EPHEMERIS_TYPE": 0, "CLASSIFICATION_TYPE": "U", "NORAD_CAT_ID": 35052, "ELEMENT_SET_NO": 999, "REV_AT_EPOCH": 87391, "BSTAR": 0.00012651118, "MEAN_MOTION_DOT": 4.07e-06, "MEAN_MOTION_DDOT": 0}, "tle": {"line1": "1 35052U 97051NY  25354.78944675  .00000407  00000+0  12651-3 0  9994", "line2": "2 35052  86.3300  17.0245 0013372  62.6597 297.5961 14.38500590873919"}}, "geometry": {"type": "Point", "coordinates": [3.2248389640179203, -74.66692522050064]}}, {"type": "Feature", "properties": {"norad_id": 35080, "name": "IRIDIUM 33 DEB", "group": "iridium-33-debris", "lat": 23.260535230347248, "lon": -133.39890462093612, "alt_km": 566.3128908424569, "timestamp": "2025-12-21T09:37:23.040133+00:00", "meta": {"OBJECT_NAME": "IRIDIUM 33 DEB", "OBJECT_ID": "1997-051PF", "EPOCH": "2025-12-20T15:09:22.011264", "MEAN_MOTION": 14.86879121, "ECCENTRICITY": 0.005897, "INCLINATION": 86.2079, "RA_OF_ASC_NODE": 48.603, "ARG_OF_PERICENTER": 152.5629, "MEAN_ANOMALY": 207.8731, "EPHEMERIS_TYPE": 0, "CLASSIFICATION_TYPE": "U", "NORAD_CAT_ID": 35080, "ELEMENT_SET_NO": 999, "REV_AT_EPOCH": 69805, "BSTAR": 0.0035206, "MEAN_MOTION_DOT": 0.00032575, "MEAN_MOTION_DDOT": 0}, "tle": {"line1": "1 35080U 97051PF  25354.63150476  .00032575  00000+0  35206-2 0  9998", "line2": "2 35080  86.2079  48.6030 0058970 152.5629 207.8731 14.86879121698053"}}, "geometry": {"type": "Point", "coordinates": [-133.39890462093612, 23.260535230347248]}}, {"type": "Feature", "properties": {"norad_id": 35297, "name": "IRIDIUM 33 DEB", "group": "iridium-33-debris", "lat": 39.53704336690579, "lon": 62.05319762266117, "alt_km": 734.998476112547, "timestamp": "2025-12-21T09:37:23.040144+00:00", "meta": {"OBJECT_NAME": "IRIDIUM 33 DEB", "OBJECT_ID": "1997-051PM", "EPOCH": "2025-12-20T11:50:15.220608", "MEAN_MOTION": 14.451882, "ECCENTRICITY": 0.00180204, "INCLINATION": 86.386, "RA_OF_ASC_NODE": 59.4502, "ARG_OF_PERICENTER": 117.2164, "MEAN_ANOMALY": 243.0877, "EPHEMERIS_TYPE": 0, "CLASSIFICATION_TYPE": "U", "NORAD_CAT_ID": 35297, "ELEMENT_SET_NO": 999, "REV_AT_EPOCH": 70538, "BSTAR": 0.00041153613, "MEAN_MOTION_DOT": 1.463e-05, "MEAN_MOTION_DDOT": 0}, "tle": {"line1": "1 35297U 97051PM  25354.49323172  .00001463  00000+0  41154-3 0  9999", "line2": "2 35297  86.3860  59.4502 0018020 117.2164 243.0877 14.45188200705384"}}, "geometry": {"type": "Point", "coordinates": [62.05319762266117, 39.53704336690579]}}, {"type": "Feature", "properties": {"norad_id": 35299, "name": "IRIDIUM 33 DEB", "group": "iridium-33-debris", "lat": -19.70713960427197, "lon": -149.2519715437607, "alt_km": 784.5720061391585, "timestamp": "2025-12-21T09:37:23.040157+00:00", "meta": {"OBJECT_NAME": "IRIDIUM 33 DEB", "OBJECT_ID": "1997-051PP", "EPOCH": "2025-12-20T13:24:11.661120", "MEAN_MOTION": 14.40896133, "ECCENTRICITY": 0.0058811, "INCLINATION": 86.2869, "RA_OF_ASC_NODE": 29.782, "ARG_OF_PERICENTER": 77.5607, "MEAN_ANOMALY": 74.0895, "EPHEMERIS_TYPE": 0, "CLASSIFICATION_TYPE": "U", "NORAD_CAT_ID": 35299, "ELEMENT_SET_NO": 999, "REV_AT_EPOCH": 86443, "BSTAR": 0.00051106, "MEAN_MOTION_DOT": 1.693e-05, "MEAN_MOTION_DDOT": 0}, "tle": {"line1": "1 35299U 97051PP  25354.55846830  .00001693  00000+0  51106-3 0  9992", "line2": "2 35299  86.2869  29.7820 0058811  77.5607  74.0895 14.40896133864439"}}, "geometry": {"type": "Point", "coordinates": [-149.2519715437607, -19.70713960427197]}}]}